GLOBALSTAR M045 [-]     
1 25676U 99019A   24061.71517574 -.00000055  00000+0  34020-3 0  9996
2 25676  51.9950 211.8789 0001212  75.2854 298.2473 12.27032624135395
GLOBALSTAR M019 [-]     
1 25677U 99019B   24061.86608608 -.00000146  00000+0 -58699-3 0  9992
2 25677  51.9886 308.5905 0001707  77.7662   2.8423 12.13850481127783
GLOBALSTAR M044 [-]     
1 25678U 99019C   24061.70482329 -.00000064  00000+0  27118-3 0  9996
2 25678  51.9950 201.2859 0006209 201.4055 171.8289 11.90229517115066
GLOBALSTAR M042 [-]     
1 25679U 99019D   24061.97941562 -.00000051  00000+0  38720-3 0  9992
2 25679  52.0022 303.9817 0003738  50.7669  51.4198 12.22056637127593
GLOBALSTAR M025 [-]     
1 25770U 99031A   24061.57108670 -.00000050  00000+0  54055-3 0  9997
2 25770  51.9800 174.1130 0002033  95.0912 357.2322 11.22549503428636
GLOBALSTAR M049 [-]     
1 25771U 99031B   24061.65866318 -.00000103  00000+0 -13021-2 0  9994
2 25771  51.9855 184.9265 0002256 300.9632  59.0942 11.12103627 64856
GLOBALSTAR M047 [-]     
1 25772U 99031C   24061.70174933 -.00000050  00000+0  54934-3 0  9995
2 25772  51.9802 226.9382 0016764 168.1521 191.9682 11.31918991417607
GLOBALSTAR M052 [-]     
1 25773U 99031D   24061.37956216 -.00000090  00000+0 -82186-3 0  9996
2 25773  51.9877 300.8874 0003327 100.5036  71.0616 11.15049084425761
